[{"OBJECT_NAME":"STARLINK-36887","OBJECT_ID":"2026-037U","EPOCH":"2026-03-17T20:00:01.999008","MEAN_MOTION":15.64933319,"ECCENTRICITY":0.0001227,"INCLINATION":42.9998,"RA_OF_ASC_NODE":148.7907,"ARG_OF_PERICENTER":272.587,"MEAN_ANOMALY":307.063,"EPHEMERIS_TYPE":0,"CLASSIFICATION_TYPE":"U","NORAD_CAT_ID":67950,"ELEMENT_SET_NO":999,"REV_AT_EPOCH":450,"BSTAR":-0.021697,"MEAN_MOTION_DOT":-0.01931718,"MEAN_MOTION_DDOT":0},{"OBJECT_NAME":"STARLINK-36897","OBJECT_ID":"2026-037V","EPOCH":"2026-03-17T20:00:01.999008","MEAN_MOTION":15.78007362,"ECCENTRICITY":0.0001693,"INCLINATION":42.9993,"RA_OF_ASC_NODE":148.4834,"ARG_OF_PERICENTER":266.9542,"MEAN_ANOMALY":75.8258,"EPHEMERIS_TYPE":0,"CLASSIFICATION_TYPE":"U","NORAD_CAT_ID":67951,"ELEMENT_SET_NO":999,"REV_AT_EPOCH":450,"BSTAR":-0.012812,"MEAN_MOTION_DOT":-0.01948158,"MEAN_MOTION_DDOT":0},{"OBJECT_NAME":"STARLINK-36381","OBJECT_ID":"2026-037W","EPOCH":"2026-03-16T13:42:14.443200","MEAN_MOTION":15.81938385,"ECCENTRICITY":0.00010214,"INCLINATION":42.9982,"RA_OF_ASC_NODE":156.1801,"ARG_OF_PERICENTER":306.5215,"MEAN_ANOMALY":53.5562,"EPHEMERIS_TYPE":0,"CLASSIFICATION_TYPE":"U","NORAD_CAT_ID":67952,"ELEMENT_SET_NO":999,"REV_AT_EPOCH":434,"BSTAR":-0.00012748186,"MEAN_MOTION_DOT":-0.00027192,"MEAN_MOTION_DDOT":0},{"OBJECT_NAME":"STARLINK-36824","OBJECT_ID":"2026-037X","EPOCH":"2026-03-17T20:00:01.999008","MEAN_MOTION":15.67010834,"ECCENTRICITY":0.0001325,"INCLINATION":42.9998,"RA_OF_ASC_NODE":148.6978,"ARG_OF_PERICENTER":270.7864,"MEAN_ANOMALY":345.9513,"EPHEMERIS_TYPE":0,"CLASSIFICATION_TYPE":"U","NORAD_CAT_ID":67953,"ELEMENT_SET_NO":999,"REV_AT_EPOCH":450,"BSTAR":-0.020362,"MEAN_MOTION_DOT":-0.01967955,"MEAN_MOTION_DDOT":0},{"OBJECT_NAME":"STARLINK-36869","OBJECT_ID":"2026-037Y","EPOCH":"2026-03-17T20:00:01.999008","MEAN_MOTION":15.66797773,"ECCENTRICITY":0.0001388,"INCLINATION":42.9996,"RA_OF_ASC_NODE":148.6819,"ARG_OF_PERICENTER":272.1648,"MEAN_ANOMALY":350.3736,"EPHEMERIS_TYPE":0,"CLASSIFICATION_TYPE":"U","NORAD_CAT_ID":67954,"ELEMENT_SET_NO":999,"REV_AT_EPOCH":450,"BSTAR":-0.020494,"MEAN_MOTION_DOT":-0.01964041,"MEAN_MOTION_DDOT":0},{"OBJECT_NAME":"STARLINK-36872","OBJECT_ID":"2026-037Z","EPOCH":"2026-03-17T13:53:38.175648","MEAN_MOTION":15.81809067,"ECCENTRICITY":0.00026042,"INCLINATION":42.9983,"RA_OF_ASC_NODE":149.9699,"ARG_OF_PERICENTER":285.8621,"MEAN_ANOMALY":74.1963,"EPHEMERIS_TYPE":0,"CLASSIFICATION_TYPE":"U","NORAD_CAT_ID":67955,"ELEMENT_SET_NO":999,"REV_AT_EPOCH":450,"BSTAR":-4.3786353e-5,"MEAN_MOTION_DOT":-9.655e-5,"MEAN_MOTION_DDOT":0},{"OBJECT_NAME":"STARLINK-36918","OBJECT_ID":"2026-037AA","EPOCH":"2026-03-16T13:37:54.394752","MEAN_MOTION":15.82097144,"ECCENTRICITY":0.00022656,"INCLINATION":42.9987,"RA_OF_ASC_NODE":156.1542,"ARG_OF_PERICENTER":256.0433,"MEAN_ANOMALY":104.0187,"EPHEMERIS_TYPE":0,"CLASSIFICATION_TYPE":"U","NORAD_CAT_ID":67956,"ELEMENT_SET_NO":999,"REV_AT_EPOCH":434,"BSTAR":0.00065764367,"MEAN_MOTION_DOT":0.00140757,"MEAN_MOTION_DDOT":0},{"OBJECT_NAME":"STARLINK-36829","OBJECT_ID":"2026-037AB","EPOCH":"2026-03-17T20:00:01.999008","MEAN_MOTION":15.73442952,"ECCENTRICITY":0.0001551,"INCLINATION":42.9995,"RA_OF_ASC_NODE":148.5018,"ARG_OF_PERICENTER":276.778,"MEAN_ANOMALY":58.3087,"EPHEMERIS_TYPE":0,"CLASSIFICATION_TYPE":"U","NORAD_CAT_ID":67957,"ELEMENT_SET_NO":999,"REV_AT_EPOCH":450,"BSTAR":-0.015473,"MEAN_MOTION_DOT":-0.01963298,"MEAN_MOTION_DDOT":0},{"OBJECT_NAME":"STARLINK-36799","OBJECT_ID":"2026-037AC","EPOCH":"2026-03-17T13:51:25.534368","MEAN_MOTION":15.82067883,"ECCENTRICITY":0.00011955,"INCLINATION":42.9983,"RA_OF_ASC_NODE":149.958,"ARG_OF_PERICENTER":254.4184,"MEAN_ANOMALY":105.6556,"EPHEMERIS_TYPE":0,"CLASSIFICATION_TYPE":"U","NORAD_CAT_ID":67958,"ELEMENT_SET_NO":999,"REV_AT_EPOCH":450,"BSTAR":0.0010263481,"MEAN_MOTION_DOT":0.00221739,"MEAN_MOTION_DDOT":0},{"OBJECT_NAME":"STARLINK-36834","OBJECT_ID":"2026-037AD","EPOCH":"2026-03-15T22:25:30.351648","MEAN_MOTION":15.82401295,"ECCENTRICITY":0.00023475,"INCLINATION":42.9988,"RA_OF_ASC_NODE":160.0045,"ARG_OF_PERICENTER":235.3783,"MEAN_ANOMALY":124.6868,"EPHEMERIS_TYPE":0,"CLASSIFICATION_TYPE":"U","NORAD_CAT_ID":67959,"ELEMENT_SET_NO":999,"REV_AT_EPOCH":424,"BSTAR":0.0025520815,"MEAN_MOTION_DOT":0.00585215,"MEAN_MOTION_DDOT":0},{"OBJECT_NAME":"STARLINK-36841","OBJECT_ID":"2026-037AE","EPOCH":"2026-03-16T12:04:37.020864","MEAN_MOTION":15.82830893,"ECCENTRICITY":0.00018947,"INCLINATION":42.9981,"RA_OF_ASC_NODE":156.5268,"ARG_OF_PERICENTER":354.5035,"MEAN_ANOMALY":5.5816,"EPHEMERIS_TYPE":0,"CLASSIFICATION_TYPE":"U","NORAD_CAT_ID":67960,"ELEMENT_SET_NO":999,"REV_AT_EPOCH":433,"BSTAR":0.0027816077,"MEAN_MOTION_DOT":0.00656337,"MEAN_MOTION_DDOT":0},{"OBJECT_NAME":"STARLINK-36912","OBJECT_ID":"2026-038A","EPOCH":"2026-03-17T20:00:01.999008","MEAN_MOTION":15.71910665,"ECCENTRICITY":0.0002304,"INCLINATION":97.2848,"RA_OF_ASC_NODE":87.5386,"ARG_OF_PERICENTER":89.7299,"MEAN_ANOMALY":86.4639,"EPHEMERIS_TYPE":0,"CLASSIFICATION_TYPE":"U","NORAD_CAT_ID":67961,"ELEMENT_SET_NO":999,"REV_AT_EPOCH":450,"BSTAR":-0.020249,"MEAN_MOTION_DOT":-0.02278126,"MEAN_MOTION_DDOT":0},{"OBJECT_NAME":"STARLINK-36881","OBJECT_ID":"2026-038B","EPOCH":"2026-03-17T20:45:07.483680","MEAN_MOTION":15.72635857,"ECCENTRICITY":0.0001272,"INCLINATION":97.2842,"RA_OF_ASC_NODE":87.5721,"ARG_OF_PERICENTER":147.2245,"MEAN_ANOMALY":212.9098,"EPHEMERIS_TYPE":0,"CLASSIFICATION_TYPE":"U","NORAD_CAT_ID":67962,"ELEMENT_SET_NO":999,"REV_AT_EPOCH":447,"BSTAR":-0.009021,"MEAN_MOTION_DOT":-0.01082652,"MEAN_MOTION_DDOT":0},{"OBJECT_NAME":"STARLINK-36357","OBJECT_ID":"2026-038C","EPOCH":"2026-03-17T20:00:01.999008","MEAN_MOTION":15.67000185,"ECCENTRICITY":0.0001898,"INCLINATION":97.2846,"RA_OF_ASC_NODE":87.5389,"ARG_OF_PERICENTER":78.6221,"MEAN_ANOMALY":95.5496,"EPHEMERIS_TYPE":0,"CLASSIFICATION_TYPE":"U","NORAD_CAT_ID":67963,"ELEMENT_SET_NO":999,"REV_AT_EPOCH":450,"BSTAR":-0.024935,"MEAN_MOTION_DOT":-0.02284801,"MEAN_MOTION_DDOT":0},{"OBJECT_NAME":"STARLINK-36349","OBJECT_ID":"2026-038D","EPOCH":"2026-03-17T20:00:01.999008","MEAN_MOTION":15.67043322,"ECCENTRICITY":0.0001918,"INCLINATION":97.2844,"RA_OF_ASC_NODE":87.5355,"ARG_OF_PERICENTER":78.593,"MEAN_ANOMALY":87.8414,"EPHEMERIS_TYPE":0,"CLASSIFICATION_TYPE":"U","NORAD_CAT_ID":67964,"ELEMENT_SET_NO":999,"REV_AT_EPOCH":450,"BSTAR":-0.02486,"MEAN_MOTION_DOT":-0.02282354,"MEAN_MOTION_DDOT":0},{"OBJECT_NAME":"STARLINK-36806","OBJECT_ID":"2026-038E","EPOCH":"2026-03-17T20:40:07.116672","MEAN_MOTION":15.7354357,"ECCENTRICITY":0.0001864,"INCLINATION":97.2849,"RA_OF_ASC_NODE":87.5757,"ARG_OF_PERICENTER":2.1267,"MEAN_ANOMALY":358.0005,"EPHEMERIS_TYPE":0,"CLASSIFICATION_TYPE":"U","NORAD_CAT_ID":67965,"ELEMENT_SET_NO":999,"REV_AT_EPOCH":447,"BSTAR":-0.0086108,"MEAN_MOTION_DOT":-0.01075485,"MEAN_MOTION_DDOT":0}]
