STARLINK-36887          
1 67950U 26037U   26076.83335647 -.01931718  00000+0 -21697-1 0  9992
2 67950  42.9998 148.7907 0001227 272.5870 307.0630 15.64933319  4501
STARLINK-36897          
1 67951U 26037V   26076.83335647 -.01948158  00000+0 -12812-1 0  9998
2 67951  42.9993 148.4834 0001693 266.9542  75.8258 15.78007362  4504
STARLINK-36381          
1 67952U 26037W   26075.57100050 -.00027192  00000+0 -12748-3 0  9992
2 67952  42.9982 156.1801 0001021 306.5215  53.5562 15.81938385  4341
STARLINK-36824          
1 67953U 26037X   26076.83335647 -.01967955  00000+0 -20362-1 0  9995
2 67953  42.9998 148.6978 0001325 270.7864 345.9513 15.67010834  4505
STARLINK-36869          
1 67954U 26037Y   26076.83335647 -.01964041  00000+0 -20494-1 0  9995
2 67954  42.9996 148.6819 0001388 272.1648 350.3736 15.66797773  4503
STARLINK-36872          
1 67955U 26037Z   26076.57891407 -.00009655  00000+0 -43786-4 0  9990
2 67955  42.9983 149.9699 0002604 285.8621  74.1963 15.81809067  4504
STARLINK-36918          
1 67956U 26037AA  26075.56799068  .00140757  00000+0  65764-3 0  9995
2 67956  42.9987 156.1542 0002265 256.0433 104.0187 15.82097144  4349
STARLINK-36829          
1 67957U 26037AB  26076.83335647 -.01963298  00000+0 -15473-1 0  9992
2 67957  42.9995 148.5018 0001551 276.7780  58.3087 15.73442952  4502
STARLINK-36799          
1 67958U 26037AC  26076.57737887  .00221739  00000+0  10263-2 0  9993
2 67958  42.9983 149.9580 0001195 254.4184 105.6556 15.82067883  4507
STARLINK-36834          
1 67959U 26037AD  26074.93437907  .00585215  00000+0  25521-2 0  9997
2 67959  42.9988 160.0045 0002347 235.3783 124.6868 15.82401295  4243
STARLINK-36841          
1 67960U 26037AE  26075.50320626  .00656337  00000+0  27816-2 0  9995
2 67960  42.9981 156.5268 0001894 354.5035   5.5816 15.82830893  4335
STARLINK-36912          
1 67961U 26038A   26076.83335647 -.02278126  00000+0 -20249-1 0  9995
2 67961  97.2848  87.5386 0002304  89.7299  86.4639 15.71910665  4505
STARLINK-36881          
1 67962U 26038B   26076.86466995 -.01082652  00000+0 -90210-2 0  9992
2 67962  97.2842  87.5721 0001272 147.2245 212.9098 15.72635857  4476
STARLINK-36357          
1 67963U 26038C   26076.83335647 -.02284801  00000+0 -24935-1 0  9990
2 67963  97.2846  87.5389 0001898  78.6221  95.5496 15.67000185  4501
STARLINK-36349          
1 67964U 26038D   26076.83335647 -.02282354  00000+0 -24860-1 0  9999
2 67964  97.2844  87.5355 0001918  78.5930  87.8414 15.67043322  4506
STARLINK-36806          
1 67965U 26038E   26076.86119348 -.01075485  00000+0 -86108-2 0  9999
2 67965  97.2849  87.5757 0001864   2.1267 358.0005 15.73543570  4476
